OBJECT_NAME,OBJECT_ID,EPOCH,MEAN_MOTION,ECCENTRICITY,INCLINATION,RA_OF_ASC_NODE,ARG_OF_PERICENTER,MEAN_ANOMALY,EPHEMERIS_TYPE,CLASSIFICATION_TYPE,NORAD_CAT_ID,ELEMENT_SET_NO,REV_AT_EPOCH,BSTAR,MEAN_MOTION_DOT,MEAN_MOTION_DDOT
CUBEBUG-2 (LO-74),2013-066AA,2026-06-13T20:20:52.473120,14.93736485,.0058639,97.8902,113.8118,39.7873,320.7624,0,U,39440,999,67649,.42317E-3,.4574E-4,0
FUNCUBE-1 (AO-73),2013-066AE,2026-06-13T20:59:27.159360,15.09452478,.0035377,97.8267,136.2511,212.6416,147.2626,0,U,39444,999,67916,.45803E-3,.7372E-4,0
UWE-3,2013-066AG,2026-06-13T19:21:45.291744,14.96999955,.0048115,97.8688,120.8577,332.4032,27.4636,0,U,39446,999,67707,.38955E-3,.4526E-4,0
UNISAT-6,2014-033C,2026-06-13T10:26:56.678208,14.88227900,.00463579,97.7869,317.2136,81.3465,279.2999,0,U,40012,999,64560,.34386577E-3,.3181E-4,0
DUCHIFAT-1,2014-033M,2026-06-13T16:41:08.119104,15.63932661,.0003523,98.0473,223.3664,119.5558,240.6051,0,U,40021,999,65520,.11045E-2,.104898E-2,0
QB50P1,2014-033R,2026-06-13T20:30:47.534112,15.18214076,.0007543,98.0960,175.7668,228.5229,131.5356,0,U,40025,999,65252,.42732E-3,.8675E-4,0
LILACSAT-2,2015-049K,2026-06-13T20:29:23.738208,15.51345152,.0005327,97.4650,201.5686,260.9207,99.1442,0,U,40908,999,59523,.31435E-3,.18402E-3,0
FOX-1A (AO-85),2015-058D,2026-06-13T17:31:56.377632,14.90954961,.0130286,64.7761,289.7255,57.8943,303.4737,0,U,40967,999,11305,.23134E-3,.2516E-4,0
CAS-2T & KS-1Q,2016-066G,2026-06-13T18:39:40.866048,14.44684063,.0342693,98.3821,240.5528,139.7889,222.9205,0,U,41847,999,50430,.23896E-3,.1655E-4,0
RADFXSAT (FOX-1B),2017-073E,2026-06-13T13:40:34.716000,15.12665401,.015014,97.4712,31.8592,341.8088,17.7804,0,U,43017,999,46484,.40226E-3,.9212E-4,0
DIWATA-2B,2018-084H,2026-06-13T20:03:04.618368,15.00438780,.0012303,98.1178,0.8989,180.9539,179.1662,0,U,43678,999,41571,.23102E-3,.2844E-4,0
ES'HAIL 2,2018-090A,2026-06-13T20:07:04.507968,1.00268894,.0001507,0.0008,356.4962,125.4240,107.7957,0,U,43700,999,2764,0,.154E-5,0
FOX-1CLIFF (AO-95),2018-099N,2026-06-13T16:03:57.412800,15.26643407,.0008355,97.4393,224.9284,10.7126,349.4289,0,U,43770,999,41268,.44518E-3,.11615E-3,0
ITASAT,2018-099AE,2026-06-13T15:53:29.175072,15.19017046,.0012487,97.4034,216.2439,12.7704,347.3845,0,U,43786,999,41237,.32727E-3,.6799E-4,0
JY1SAT (JO-97),2018-099AX,2026-06-13T16:52:06.437856,15.33551647,.0004189,97.4136,227.5247,279.4170,80.6599,0,U,43803,999,41309,.53016E-3,.17139E-3,0
UWE-4,2018-111E,2026-06-13T18:50:04.198848,15.45933781,.0006131,97.5857,93.0195,357.5273,2.5945,0,U,43880,999,41025,.70749E-3,.34468E-3,0
TIANYAN 01,2019-093C,2026-06-13T19:31:47.368416,14.86513235,.0015017,97.7534,237.1278,96.9993,263.2931,0,U,44881,999,35091,.1007E-3,.839E-5,0
RS-44 & BREEZE-KM R/B,2019-096E,2026-06-13T17:19:03.749088,12.79748789,.0218031,82.5218,342.0083,152.2450,209.0490,0,U,44909,999,30190,.61609E-4,.28E-6,0
SALSAT,2020-068K,2026-06-13T19:25:47.720640,15.29755280,.000829,97.8845,167.6684,322.4274,37.6385,0,U,46495,999,31484,.28306E-3,.8083E-4,0
XW-3 (CAS-9),2021-131B,2026-06-13T20:40:18.574176,14.41354217,.0005323,98.4979,257.2689,103.8729,256.3053,0,U,50466,999,23463,.13926E-3,.407E-5,0
GREENCUBE (IO-117),2022-080E,2026-06-13T07:02:28.697280,6.42583230,.0008911,70.1444,299.5995,290.4576,69.5127,0,U,53109,999,9181,0,-.3E-7,0
UMKA 1 (RS40S),2023-091G,2026-06-13T19:17:52.186272,15.20781857,.0014114,97.5057,223.5140,128.1637,232.0873,0,U,57172,999,16349,.287E-3,.627E-4,0
CUBESX-HSE 3 (RS42S),2023-091N,2026-06-13T20:10:56.357184,15.31138292,.0012112,97.5101,230.3856,105.0121,255.2461,0,U,57178,999,16391,.46061E-3,.13816E-3,0
MONITOR-3 (RS58S),2023-091Q,2026-06-13T20:35:35.865600,15.27781011,.0013103,97.5091,228.2793,111.0792,249.1849,0,U,57180,999,16378,.42743E-3,.11557E-3,0
MONITOR-4 (RS57S),2023-091S,2026-06-13T20:05:42.376128,15.27866865,.0013124,97.5086,228.2296,111.4538,248.8102,0,U,57182,999,16378,.37068E-3,.10037E-3,0
MONITOR-2 (RS39S),2023-091U,2026-06-13T19:42:22.379040,15.18882381,.0012642,97.5079,223.1256,121.3051,238.9422,0,U,57184,999,16344,.24687E-3,.5089E-4,0
SVYATOBOR 1 (RS60S),2023-091X,2026-06-13T20:20:25.956096,15.26563681,.0010909,97.5097,228.6459,104.3986,255.8464,0,U,57187,999,16380,.37705E-3,.9806E-4,0
VIZARD-METEO (RS38S),2023-091Z,2026-06-13T19:48:09.897120,15.35927076,.0008454,97.5100,234.2426,87.6106,272.6105,0,U,57189,999,16417,.48694E-3,.16982E-3,0
POLYTECH-UNIVERSE 3 (RS46S),2023-091AB,2026-06-13T20:22:11.159328,15.19083556,.0016693,97.5054,222.6575,137.4281,222.8251,0,U,57191,999,16344,.26977E-3,.561E-4,0
UTMN 2 (RS27S),2023-091AP,2026-06-13T20:38:54.016224,15.31977333,.0009423,97.5096,232.0350,93.7918,266.4401,0,U,57203,999,16403,.44273E-3,.13617E-3,0
