CUBEBUG-2 (LO-74)       
1 39440U 13066AA  26164.84782955  .00004574  00000+0  42317-3 0  9992
2 39440  97.8902 113.8118 0058639  39.7873 320.7624 14.93736485676494
FUNCUBE-1 (AO-73)       
1 39444U 13066AE  26164.87461990  .00007372  00000+0  45803-3 0  9994
2 39444  97.8267 136.2511 0035377 212.6416 147.2626 15.09452478679163
UWE-3                   
1 39446U 13066AG  26164.80677421  .00004526  00000+0  38955-3 0  9995
2 39446  97.8688 120.8577 0048115 332.4032  27.4636 14.96999955677071
UNISAT-6                
1 40012U 14033C   26164.43537822  .00003181  00000+0  34387-3 0  9991
2 40012  97.7869 317.2136 0046357  81.3465 279.2999 14.88227900645609
DUCHIFAT-1              
1 40021U 14033M   26164.69523286  .00104898  00000+0  11045-2 0  9990
2 40021  98.0473 223.3664 0003523 119.5558 240.6051 15.63932661655201
QB50P1                  
1 40025U 14033R   26164.85471683  .00008675  00000+0  42732-3 0  9999
2 40025  98.0960 175.7668 0007543 228.5229 131.5356 15.18214076652523
LILACSAT-2              
1 40908U 15049K   26164.85374697  .00018402  00000+0  31435-3 0  9991
2 40908  97.4650 201.5686 0005327 260.9207  99.1442 15.51345152595230
FOX-1A (AO-85)          
1 40967U 15058D   26164.73051363  .00002516  00000+0  23134-3 0  9991
2 40967  64.7761 289.7255 0130286  57.8943 303.4737 14.90954961113058
CAS-2T & KS-1Q          
1 41847U 16066G   26164.77755632  .00001655  00000+0  23896-3 0  9991
2 41847  98.3821 240.5528 0342693 139.7889 222.9205 14.44684063504309
RADFXSAT (FOX-1B)       
1 43017U 17073E   26164.56984625  .00009212  00000+0  40226-3 0  9997
2 43017  97.4712  31.8592 0150140 341.8088  17.7804 15.12665401464842
DIWATA-2B               
1 43678U 18084H   26164.83547012  .00002844  00000+0  23102-3 0  9996
2 43678  98.1178   0.8989 0012303 180.9539 179.1662 15.00438780415718
ES'HAIL 2               
1 43700U 18090A   26164.83824662  .00000154  00000+0  00000+0 0  9998
2 43700   0.0008 356.4962 0001507 125.4240 107.7957  1.00268894 27643
FOX-1CLIFF (AO-95)      
1 43770U 18099N   26164.66941450  .00011615  00000+0  44518-3 0  9990
2 43770  97.4393 224.9284 0008355  10.7126 349.4289 15.26643407412685
ITASAT                  
1 43786U 18099AE  26164.66214323  .00006799  00000+0  32727-3 0  9995
2 43786  97.4034 216.2439 0012487  12.7704 347.3845 15.19017046412372
JY1SAT (JO-97)          
1 43803U 18099AX  26164.70285229  .00017139  00000+0  53016-3 0  9997
2 43803  97.4136 227.5247 0004189 279.4170  80.6599 15.33551647413095
UWE-4                   
1 43880U 18111E   26164.78477082  .00034468  00000+0  70749-3 0  9991
2 43880  97.5857  93.0195 0006131 357.5273   2.5945 15.45933781410259
TIANYAN 01              
1 44881U 19093C   26164.81374269  .00000839  00000+0  10070-3 0  9996
2 44881  97.7534 237.1278 0015017  96.9993 263.2931 14.86513235350913
RS-44 & BREEZE-KM R/B   
1 44909U 19096E   26164.72157117  .00000028  00000+0  61609-4 0  9996
2 44909  82.5218 342.0083 0218031 152.2450 209.0490 12.79748789301907
SALSAT                  
1 46495U 20068K   26164.80958010  .00008083  00000+0  28306-3 0  9994
2 46495  97.8845 167.6684 0008290 322.4274  37.6385 15.29755280314848
XW-3 (CAS-9)            
1 50466U 21131B   26164.86132609  .00000407  00000+0  13926-3 0  9997
2 50466  98.4979 257.2689 0005323 103.8729 256.3053 14.41354217234635
GREENCUBE (IO-117)      
1 53109U 22080E   26164.29338770 -.00000003  00000+0  00000+0 0  9990
2 53109  70.1444 299.5995 0008911 290.4576  69.5127  6.42583230 91812
UMKA 1 (RS40S)          
1 57172U 23091G   26164.80407623  .00006270  00000+0  28700-3 0  9990
2 57172  97.5057 223.5140 0014114 128.1637 232.0873 15.20781857163495
CUBESX-HSE 3 (RS42S)    
1 57178U 23091N   26164.84093006  .00013816  00000+0  46061-3 0  9990
2 57178  97.5101 230.3856 0012112 105.0121 255.2461 15.31138292163917
MONITOR-3 (RS58S)       
1 57180U 23091Q   26164.85805400  .00011557  00000+0  42743-3 0  9996
2 57180  97.5091 228.2793 0013103 111.0792 249.1849 15.27781011163781
MONITOR-4 (RS57S)       
1 57182U 23091S   26164.83729602  .00010037  00000+0  37068-3 0  9991
2 57182  97.5086 228.2296 0013124 111.4538 248.8102 15.27866865163789
MONITOR-2 (RS39S)       
1 57184U 23091U   26164.82109235  .00005089  00000+0  24687-3 0  9990
2 57184  97.5079 223.1256 0012642 121.3051 238.9422 15.18882381163446
SVYATOBOR 1 (RS60S)     
1 57187U 23091X   26164.84752264  .00009806  00000+0  37705-3 0  9997
2 57187  97.5097 228.6459 0010909 104.3986 255.8464 15.26563681163808
VIZARD-METEO (RS38S)    
1 57189U 23091Z   26164.82511455  .00016982  00000+0  48694-3 0  9994
2 57189  97.5100 234.2426 0008454  87.6106 272.6105 15.35927076164173
POLYTECH-UNIVERSE 3 (R*)
1 57191U 23091AB  26164.84874027  .00005610  00000+0  26977-3 0  9992
2 57191  97.5054 222.6575 0016693 137.4281 222.8251 15.19083556163448
UTMN 2 (RS27S)          
1 57203U 23091AP  26164.86034741  .00013617  00000+0  44273-3 0  9994
2 57203  97.5096 232.0350 0009423  93.7918 266.4401 15.31977333164034
